{"type": "FeatureCollection", "features": [ {"type": "Feature", "properties": {"norad_id": 67120, "name": "STARLINK-36217", "group": "last-30-days", "lat": -18.71477069028532, "lon": 92.17104527356196, "alt_km": 301.28003842438284, "timestamp": "2025-12-23T11:34:46.949912+00:00", "meta": {"OBJECT_NAME": "STARLINK-36217", "OBJECT_ID": "2025-299U", "EPOCH": "2025-12-23T04:00:01.998720", "MEAN_MOTION": 15.92033464, "ECCENTRICITY": 0.0001366, "INCLINATION": 42.9985, "RA_OF_ASC_NODE": 252.8145, "ARG_OF_PERICENTER": 267.775, "MEAN_ANOMALY": 288.7523, "EPHEMERIS_TYPE": 0, "CLASSIFICATION_TYPE": "U", "NORAD_CAT_ID": 67120, "ELEMENT_SET_NO": 999, "REV_AT_EPOCH": 248, "BSTAR": -0.0057504, "MEAN_MOTION_DOT": -0.01968274, "MEAN_MOTION_DDOT": 0.0010488}, "tle": {"line1": "1 67120U 25299U   25357.16668980 -.01968274  10488-2 -57504-2 0  9994", "line2": "2 67120  42.9985 252.8145 0001366 267.7750 288.7523 15.92033464  2488"}}, "geometry": {"type": "Point", "coordinates": [92.17104527356196, -18.71477069028532]}}, {"type": "Feature", "properties": {"norad_id": 67121, "name": "STARLINK-36124", "group": "last-30-days", "lat": -21.583649174715784, "lon": 95.96283317244125, "alt_km": 301.3088932505061, "timestamp": "2025-12-23T11:34:46.949921+00:00", "meta": {"OBJECT_NAME": "STARLINK-36124", "OBJECT_ID": "2025-299V", "EPOCH": "2025-12-23T04:00:01.998720", "MEAN_MOTION": 15.92081892, "ECCENTRICITY": 0.0001348, "INCLINATION": 42.9982, "RA_OF_ASC_NODE": 252.8029, "ARG_OF_PERICENTER": 265.1282, "MEAN_ANOMALY": 295.9342, "EPHEMERIS_TYPE": 0, "CLASSIFICATION_TYPE": "U", "NORAD_CAT_ID": 67121, "ELEMENT_SET_NO": 999, "REV_AT_EPOCH": 248, "BSTAR": -0.0058079, "MEAN_MOTION_DOT": -0.01992649, "MEAN_MOTION_DDOT": 0.0010737}, "tle": {"line1": "1 67121U 25299V   25357.16668980 -.01992649  10737-2 -58079-2 0  9993", "line2": "2 67121  42.9982 252.8029 0001348 265.1282 295.9342 15.92081892  2486"}}, "geometry": {"type": "Point", "coordinates": [95.96283317244125, -21.583649174715784]}}, {"type": "Feature", "properties": {"norad_id": 67122, "name": "STARLINK-36188", "group": "last-30-days", "lat": -22.45246392799283, "lon": 97.16338099586447, "alt_km": 301.19551233285983, "timestamp": "2025-12-23T11:34:46.949930+00:00", "meta": {"OBJECT_NAME": "STARLINK-36188", "OBJECT_ID": "2025-299W", "EPOCH": "2025-12-23T04:00:01.998720", "MEAN_MOTION": 15.92073099, "ECCENTRICITY": 0.0001369, "INCLINATION": 42.9985, "RA_OF_ASC_NODE": 252.7994, "ARG_OF_PERICENTER": 258.1475, "MEAN_ANOMALY": 304.3259, "EPHEMERIS_TYPE": 0, "CLASSIFICATION_TYPE": "U", "NORAD_CAT_ID": 67122, "ELEMENT_SET_NO": 999, "REV_AT_EPOCH": 248, "BSTAR": -0.0057038, "MEAN_MOTION_DOT": -0.01956496, "MEAN_MOTION_DDOT": 0.0010375}, "tle": {"line1": "1 67122U 25299W   25357.16668980 -.01956496  10375-2 -57038-2 0  9996", "line2": "2 67122  42.9985 252.7994 0001369 258.1475 304.3259 15.92073099  2481"}}, "geometry": {"type": "Point", "coordinates": [97.16338099586447, -22.45246392799283]}}, {"type": "Feature", "properties": {"norad_id": 67123, "name": "STARLINK-36151", "group": "last-30-days", "lat": -20.50149586211815, "lon": 94.50298550004831, "alt_km": 301.35502155622544, "timestamp": "2025-12-23T11:34:46.949940+00:00", "meta": {"OBJECT_NAME": "STARLINK-36151", "OBJECT_ID": "2025-299X", "EPOCH": "2025-12-23T04:00:01.998720", "MEAN_MOTION": 15.92059682, "ECCENTRICITY": 0.0001744, "INCLINATION": 42.9987, "RA_OF_ASC_NODE": 252.8075, "ARG_OF_PERICENTER": 275.3101, "MEAN_ANOMALY": 284.0291, "EPHEMERIS_TYPE": 0, "CLASSIFICATION_TYPE": "U", "NORAD_CAT_ID": 67123, "ELEMENT_SET_NO": 999, "REV_AT_EPOCH": 248, "BSTAR": -0.0057273, "MEAN_MOTION_DOT": -0.01963215, "MEAN_MOTION_DDOT": 0.001044}, "tle": {"line1": "1 67123U 25299X   25357.16668980 -.01963215  10440-2 -57273-2 0  9998", "line2": "2 67123  42.9987 252.8075 0001744 275.3101 284.0291 15.92059682  2481"}}, "geometry": {"type": "Point", "coordinates": [94.50298550004831, -20.50149586211815]}}, {"type": "Feature", "properties": {"norad_id": 67124, "name": "STARLINK-36195", "group": "last-30-days", "lat": -23.421482309785457, "lon": 98.53582075500945, "alt_km": 301.19149851790553, "timestamp": "2025-12-23T11:34:46.949949+00:00", "meta": {"OBJECT_NAME": "STARLINK-36195", "OBJECT_ID": "2025-299Y", "EPOCH": "2025-12-23T04:00:01.998720", "MEAN_MOTION": 15.92086403, "ECCENTRICITY": 0.0001953, "INCLINATION": 42.9986, "RA_OF_ASC_NODE": 252.7955, "ARG_OF_PERICENTER": 269.467, "MEAN_ANOMALY": 294.5974, "EPHEMERIS_TYPE": 0, "CLASSIFICATION_TYPE": "U", "NORAD_CAT_ID": 67124, "ELEMENT_SET_NO": 999, "REV_AT_EPOCH": 248, "BSTAR": -0.0057089, "MEAN_MOTION_DOT": -0.01959728, "MEAN_MOTION_DDOT": 0.0010408}, "tle": {"line1": "1 67124U 25299Y   25357.16668980 -.01959728  10408-2 -57089-2 0  9992", "line2": "2 67124  42.9986 252.7955 0001953 269.4670 294.5974 15.92086403  2489"}}, "geometry": {"type": "Point", "coordinates": [98.53582075500945, -23.421482309785457]}}, {"type": "Feature", "properties": {"norad_id": 67125, "name": "STARLINK-36219", "group": "last-30-days", "lat": -24.326656071782153, "lon": 99.85233248039755, "alt_km": 301.4438529155832, "timestamp": "2025-12-23T11:34:46.949958+00:00", "meta": {"OBJECT_NAME": "STARLINK-36219", "OBJECT_ID": "2025-299Z", "EPOCH": "2025-12-23T04:00:01.998720", "MEAN_MOTION": 15.92094559, "ECCENTRICITY": 0.0001509, "INCLINATION": 42.9984, "RA_OF_ASC_NODE": 252.7915, "ARG_OF_PERICENTER": 272.2686, "MEAN_ANOMALY": 293.2941, "EPHEMERIS_TYPE": 0, "CLASSIFICATION_TYPE": "U", "NORAD_CAT_ID": 67125, "ELEMENT_SET_NO": 999, "REV_AT_EPOCH": 248, "BSTAR": -0.0057169, "MEAN_MOTION_DOT": -0.01963134, "MEAN_MOTION_DDOT": 0.0010443}, "tle": {"line1": "1 67125U 25299Z   25357.16668980 -.01963134  10443-2 -57169-2 0  9997", "line2": "2 67125  42.9984 252.7915 0001509 272.2686 293.2941 15.92094559  2481"}}, "geometry": {"type": "Point", "coordinates": [99.85233248039755, -24.326656071782153]}}, {"type": "Feature", "properties": {"norad_id": 67126, "name": "STARLINK-36223", "group": "last-30-days", "lat": -25.41235532809529, "lon": 101.47988855078827, "alt_km": 301.28458807021707, "timestamp": "2025-12-23T11:34:46.949967+00:00", "meta": {"OBJECT_NAME": "STARLINK-36223", "OBJECT_ID": "2025-299AA", "EPOCH": "2025-12-23T04:00:01.998720", "MEAN_MOTION": 15.92095934, "ECCENTRICITY": 0.0001819, "INCLINATION": 42.9984, "RA_OF_ASC_NODE": 252.787, "ARG_OF_PERICENTER": 268.8484, "MEAN_ANOMALY": 298.5509, "EPHEMERIS_TYPE": 0, "CLASSIFICATION_TYPE": "U", "NORAD_CAT_ID": 67126, "ELEMENT_SET_NO": 999, "REV_AT_EPOCH": 248, "BSTAR": -0.0057057, "MEAN_MOTION_DOT": -0.01959558, "MEAN_MOTION_DDOT": 0.0010408}, "tle": {"line1": "1 67126U 25299AA  25357.16668980 -.01959558  10408-2 -57057-2 0  9990", "line2": "2 67126  42.9984 252.7870 0001819 268.8484 298.5509 15.92095934  2489"}}, "geometry": {"type": "Point", "coordinates": [101.47988855078827, -25.41235532809529]}}, {"type": "Feature", "properties": {"norad_id": 67127, "name": "STARLINK-36164", "group": "last-30-days", "lat": -26.37012162558037, "lon": 102.96375642723088, "alt_km": 301.22623081829715, "timestamp": "2025-12-23T11:34:46.949977+00:00", "meta": {"OBJECT_NAME": "STARLINK-36164", "OBJECT_ID": "2025-299AB", "EPOCH": "2025-12-23T04:00:01.998720", "MEAN_MOTION": 15.92098999, "ECCENTRICITY": 0.0001858, "INCLINATION": 42.9984, "RA_OF_ASC_NODE": 252.7828, "ARG_OF_PERICENTER": 266.5295, "MEAN_ANOMALY": 302.5087, "EPHEMERIS_TYPE": 0, "CLASSIFICATION_TYPE": "U", "NORAD_CAT_ID": 67127, "ELEMENT_SET_NO": 999, "REV_AT_EPOCH": 248, "BSTAR": -0.0056683, "MEAN_MOTION_DOT": -0.01947222, "MEAN_MOTION_DDOT": 0.0010286}, "tle": {"line1": "1 67127U 25299AB  25357.16668980 -.01947222  10286-2 -56683-2 0  9994", "line2": "2 67127  42.9984 252.7828 0001858 266.5295 302.5087 15.92098999  2482"}}, "geometry": {"type": "Point", "coordinates": [102.96375642723088, -26.37012162558037]}}, {"type": "Feature", "properties": {"norad_id": 67128, "name": "STARLINK-35685", "group": "last-30-days", "lat": -29.10165923206935, "lon": 107.49026852531614, "alt_km": 301.40824963269824, "timestamp": "2025-12-23T11:34:46.949986+00:00", "meta": {"OBJECT_NAME": "STARLINK-35685", "OBJECT_ID": "2025-299AC", "EPOCH": "2025-12-23T04:00:01.998720", "MEAN_MOTION": 15.92078492, "ECCENTRICITY": 0.0001952, "INCLINATION": 42.9981, "RA_OF_ASC_NODE": 252.7701, "ARG_OF_PERICENTER": 269.2118, "MEAN_ANOMALY": 304.7163, "EPHEMERIS_TYPE": 0, "CLASSIFICATION_TYPE": "U", "NORAD_CAT_ID": 67128, "ELEMENT_SET_NO": 999, "REV_AT_EPOCH": 248, "BSTAR": -0.005706, "MEAN_MOTION_DOT": -0.0195797, "MEAN_MOTION_DDOT": 0.001039}, "tle": {"line1": "1 67128U 25299AC  25357.16668980 -.01957970  10390-2 -57060-2 0  9992", "line2": "2 67128  42.9981 252.7701 0001952 269.2118 304.7163 15.92078492  2484"}}, "geometry": {"type": "Point", "coordinates": [107.49026852531614, -29.10165923206935]}}, {"type": "Feature", "properties": {"norad_id": 67129, "name": "STARLINK-36214", "group": "last-30-days", "lat": -27.49666139933182, "lon": 104.77355644536787, "alt_km": 301.6479746456207, "timestamp": "2025-12-23T11:34:46.949995+00:00", "meta": {"OBJECT_NAME": "STARLINK-36214", "OBJECT_ID": "2025-299AD", "EPOCH": "2025-12-23T04:00:01.998720", "MEAN_MOTION": 15.92104688, "ECCENTRICITY": 0.0001438, "INCLINATION": 42.9983, "RA_OF_ASC_NODE": 252.7775, "ARG_OF_PERICENTER": 275.3513, "MEAN_ANOMALY": 295.6598, "EPHEMERIS_TYPE": 0, "CLASSIFICATION_TYPE": "U", "NORAD_CAT_ID": 67129, "ELEMENT_SET_NO": 999, "REV_AT_EPOCH": 248, "BSTAR": -0.0057309, "MEAN_MOTION_DOT": -0.01968885, "MEAN_MOTION_DDOT": 0.0010501}, "tle": {"line1": "1 67129U 25299AD  25357.16668980 -.01968885  10501-2 -57309-2 0  9990", "line2": "2 67129  42.9983 252.7775 0001438 275.3513 295.6598 15.92104688  2481"}}, "geometry": {"type": "Point", "coordinates": [104.77355644536787, -27.49666139933182]}}]}